IRIDIUM 57 [-]          
1 25273U 98019B   24030.95511614  .00000487  00000+0  16387-3 0  9993
2 25273  86.3992 356.0018 0002181  87.5223 272.6223 14.35063565352596
IRIDIUM 63 [-]          
1 25286U 98021B   24030.75122929  .00000577  00000+0  19367-3 0  9996
2 25286  86.3984 293.0221 0002280  88.7191 271.4267 14.35588213351590
IRIDIUM 69 [-]          
1 25319U 98026A   24030.80709060  .00000828  00000+0  25789-3 0  9995
2 25319  86.4003 307.7973 0000932 171.7977 188.3238 14.39780555350606
IRIDIUM 71 [-]          
1 25320U 98026B   24030.83793470  .00000661  00000+0  20328-3 0  9997
2 25320  86.3989 302.5791 0001447  19.1275 340.9978 14.40101155351129
IRIDIUM 73 [-]          
1 25344U 98032C   24030.70031349  .00000716  00000+0  17876-3 0  9991
2 25344  86.4391 260.2602 0001525  97.9553 262.1825 14.50268781357553
IRIDIUM 82 [-]          
1 25467U 98051A   24030.93167893  .00018259  00000+0  10059-2 0  9993
2 25467  86.3959 351.0547 0139139   8.2499 352.0975 15.05877796347650
IRIDIUM 2 [-]           
1 25527U 98066A   24030.94143846  .00053435  00000+0  85960-3 0  9998
2 25527  85.5140  31.6030 0007518 113.6626 246.5424 15.52748561386272
